STARLINK-30327          
1 57707U 23129K   26068.51769668  .00007635  00000+0  29314-3 0  9995
2 57707  42.9974  85.9834 0023030  70.8320 289.5022 15.26626807140903
STARLINK-34377          
1 64279U 25120Z   26068.53285317  .00031252  00000+0  10630-2 0  9998
2 64279  53.1590 117.3068 0001518  91.6174 268.5000 15.30196282 43894
